NORAD_CAT_ID,OBJECT_NAME,OBJECT_TYPE,EPOCH,MEAN_MOTION,ECCENTRICITY,INCLINATION,RA_OF_ASC_NODE,ARG_OF_PERICENTER,MEAN_ANOMALY,BSTAR,MEAN_MOTION_DOT,MEAN_MOTION_DDOT,TLE_LINE0,TLE_LINE1,TLE_LINE2,SEMIMAJOR_AXIS,PERIOD,APOGEE,PERIGEE,DECAYED
53930.0,STARLINK-5010,PAYLOAD,2023-09-19 01:38:03,15.08847422,0.0001661,53.2185,35.8859,91.7522,268.3661,0.00053963,8.312e-05,0.0,0 STARLINK-5010,1 53930U 22119AW  23262.06809381  .00008312  00000-0  53963-3 0  9998,2 53930  53.2185  35.8859 0001661  91.7522 268.3661 15.08847422 55287,6917.858,95.437,540.872,538.574,0.0
53930.0,STARLINK-5010,PAYLOAD,2023-09-20 07:50:23,15.08834521,0.0001487,53.2187,30.2377,92.6837,267.4325,-7.6246e-05,-1.501e-05,0.0,0 STARLINK-5010,1 53930U 22119AW  23263.32665600 -.00001501  00000-0 -76246-4 0  9997,2 53930  53.2187  30.2377 0001487  92.6837 267.4325 15.08834521 55472,6917.897,95.438,540.791,538.733,0.0
53930.0,STARLINK-5010,PAYLOAD,2023-09-20 14:11:56,15.08823683,0.0001356,53.2188,29.0479,97.5261,262.5885,-0.00018671,-3.257e-05,0.0,0 STARLINK-5010,1 53930U 22119AW  23263.59162246 -.00003257  00000-0 -18671-3 0  9991,2 53930  53.2188  29.0479 0001356  97.5261 262.5885 15.08823683 55937,6917.93,95.439,540.733,538.857,0.0
53930.0,STARLINK-5010,PAYLOAD,2023-09-20 17:22:42,15.08819207,0.0001372,53.2181,28.4529,88.7767,271.3382,-0.00026822,-4.552e-05,0.0,0 STARLINK-5010,1 53930U 22119AW  23263.72410761 -.00004552  00000-0 -26822-3 0  9990,2 53930  53.2181  28.4529 0001372  88.7767 271.3382 15.08819207 55533,6917.944,95.439,540.758,538.86,0.0
53930.0,STARLINK-5010,PAYLOAD,2023-09-20 18:58:06,15.0881844,0.0001359,53.218,28.1554,88.6435,271.4712,-0.00026882,-4.561e-05,0.0,0 STARLINK-5010,1 53930U 22119AW  23263.79034855 -.00004561  00000-0 -26882-3 0  9999,2 53930  53.2180  28.1554 0001359  88.6435 271.4712 15.08818440 55966,6917.946,95.439,540.751,538.871,0.0
53930.0,STARLINK-5010,PAYLOAD,2023-09-21 12:27:20,15.08838956,0.0001303,53.2181,24.8839,83.9012,276.2129,0.00012099,1.638e-05,0.0,0 STARLINK-5010,1 53930U 22119AW  23264.51898619  .00001638  00000-0  12099-3 0  9991,2 53930  53.2181  24.8839 0001303  83.9012 276.2129 15.08838956 56076,6917.884,95.438,540.65,538.847,0.0
53930.0,STARLINK-5010,PAYLOAD,2023-09-21 15:38:06,15.0884593,0.0001257,53.2175,24.2896,67.6767,292.4358,0.00037926,5.754e-05,0.0,0 STARLINK-5010,1 53930U 22119AW  23264.65146532  .00005754  00000-0  37926-3 0  9995,2 53930  53.2175  24.2896 0001257  67.6767 292.4358 15.08845930 55679,6917.862,95.437,540.597,538.858,0.0
53930.0,STARLINK-5010,PAYLOAD,2023-09-21 20:24:15,15.08853793,0.0001232,53.2171,23.3968,66.2846,293.8275,0.0007436,0.00011571,0.0,0 STARLINK-5010,1 53930U 22119AW  23264.85018504  .00011571  00000-0  74360-3 0  9991,2 53930  53.2171  23.3968 0001232  66.2846 293.8275 15.08853793 56121,6917.838,95.437,540.556,538.851,0.0
53930.0,STARLINK-5010,PAYLOAD,2023-09-22 13:53:30,15.08848463,0.000148,53.2174,20.1223,117.6425,242.4718,0.0003627,5.49e-05,0.0,0 STARLINK-5010,1 53930U 22119AW  23265.57882289  .00005490  00000-0  36270-3 0  9991,2 53930  53.2174  20.1223 0001480 117.6425 242.4718 15.08848463 56234,6917.855,95.437,540.743,538.696,0.0
53930.0,STARLINK-5010,PAYLOAD,2023-09-22 15:28:53,15.08851914,0.0001672,53.2185,19.8294,58.2792,301.8363,0.0005182,7.971e-05,0.0,0 STARLINK-5010,1 53930U 22119AW  23265.64506526  .00007971  00000-0  51820-3 0  9990,2 53930  53.2185  19.8294 0001672  58.2792 301.8363 15.08851914 55824,6917.844,95.437,540.866,538.552,0.0
53930.0,STARLINK-5010,PAYLOAD,2023-09-22 20:15:02,15.0887082,0.000124,53.217,18.9361,69.8932,290.2194,0.00072756,0.0001132,0.0,0 STARLINK-5010,1 53930U 22119AW  23265.84377659  .00011320  00000-0  72756-3 0  9999,2 53930  53.2170  18.9361 0001240  69.8932 290.2194 15.08870820 56278,6917.786,95.436,540.509,538.793,0.0
53930.0,STARLINK-5010,PAYLOAD,2023-09-23 12:08:53,15.08847089,0.0001275,53.2162,15.9635,82.8373,277.2764,0.00021954,3.208e-05,0.0,0 STARLINK-5010,1 53930U 22119AW  23266.50617901  .00003208  00000-0  21954-3 0  9990,2 53930  53.2162  15.9635 0001275  82.8373 277.2764 15.08847089 55955,6917.859,95.437,540.606,538.842,0.0
53930.0,STARLINK-5010,PAYLOAD,2023-09-23 13:44:17,15.08845198,0.000129,53.2166,15.6666,73.274,286.8394,0.00060927,9.423e-05,0.0,0 STARLINK-5010,1 53930U 22119AW  23266.57242050  .00009423  00000-0  60927-3 0  9994,2 53930  53.2166  15.6666 0001290  73.2740 286.8394 15.08845198 56381,6917.865,95.437,540.622,538.837,0.0
53930.0,STARLINK-5010,PAYLOAD,2023-09-24 10:24:17,15.08843165,0.0001338,53.2174,11.8011,90.0965,270.018,0.00021945,3.207e-05,0.0,0 STARLINK-5010,1 53930U 22119AW  23267.43354156  .00003207  00000-0  21945-3 0  9992,2 53930  53.2174  11.8011 0001338  90.0965 270.0180 15.08843165 56099,6917.871,95.437,540.661,538.81,0.0
53930.0,STARLINK-5010,PAYLOAD,2023-09-24 13:35:04,15.08848477,0.0001411,53.2174,11.2077,75.4876,284.6273,0.0002297,3.37e-05,0.0,0 STARLINK-5010,1 53930U 22119AW  23267.56602068  .00003370  00000-0  22970-3 0  9994,2 53930  53.2174  11.2077 0001411  75.4876 284.6273 15.08848477 56539,6917.854,95.437,540.696,538.743,0.0
53930.0,STARLINK-5010,PAYLOAD,2023-09-25 13:25:51,15.0885276,0.0001391,53.2182,6.7474,94.5601,265.555,0.00035897,5.432e-05,0.0,0 STARLINK-5010,1 53930U 22119AW  23268.55961909  .00005432  00000-0  35897-3 0  9999,2 53930  53.2182   6.7474 0001391  94.5601 265.5550 15.08852760 56685,6917.841,95.437,540.669,538.744,0.0
53930.0,STARLINK-5010,PAYLOAD,2023-09-26 10:05:52,15.08835757,0.0001585,53.2187,2.8821,104.061,256.0558,4.5007e-05,4.28e-06,0.0,0 STARLINK-5010,1 53930U 22119AW  23269.42074682  .00000428  00000-0  45007-4 0  9994,2 53930  53.2187   2.8821 0001585 104.0610 256.0558 15.08835757 56393,6917.893,95.438,540.855,538.662,0.0
53930.0,STARLINK-5010,PAYLOAD,2023-09-26 13:16:38,15.08839303,0.0001401,53.2178,2.284,88.7754,271.3399,8.9907e-05,1.143e-05,0.0,0 STARLINK-5010,1 53930U 22119AW  23269.55322565  .00001143  00000-0  89907-4 0  9996,2 53930  53.2178   2.2840 0001401  88.7754 271.3399 15.08839303 56835,6917.883,95.438,540.717,538.778,0.0
53930.0,STARLINK-5010,PAYLOAD,2023-09-27 13:07:25,15.08856528,0.0001398,53.2169,357.8262,86.2748,273.8403,0.00063816,9.887e-05,0.0,0 STARLINK-5010,1 53930U 22119AW  23270.54682332  .00009887  00000-0  63816-3 0  9991,2 53930  53.2169 357.8262 0001398  86.2748 273.8403 15.08856528 56980,6917.83,95.437,540.662,538.728,0.0
53930.0,STARLINK-5010,PAYLOAD,2023-09-28 11:22:50,15.0883573,0.0001147,53.2161,353.6647,76.6004,283.5115,2.8094e-05,1.59e-06,0.0,0 STARLINK-5010,1 53930U 22119AW  23271.47419058  .00000159  00000-0  28094-4 0  9990,2 53930  53.2161 353.6647 0001147  76.6004 283.5115 15.08835730 56703,6917.893,95.438,540.552,538.965,0.0
53930.0,STARLINK-5010,PAYLOAD,2023-09-28 14:33:36,15.08840758,0.0001214,53.2159,353.0715,91.9502,268.163,0.0001283,1.755e-05,0.0,0 STARLINK-5010,1 53930U 22119AW  23271.60666953  .00001755  00000-0  12830-3 0  9996,2 53930  53.2159 353.0715 0001214  91.9502 268.1630 15.08840758 57144,6917.878,95.438,540.583,538.903,0.0
53930.0,STARLINK-5010,PAYLOAD,2023-09-29 12:49:00,15.0884517,0.0001568,53.2181,348.9067,83.7671,276.3499,0.00022641,3.318e-05,0.0,0 STARLINK-5010,1 53930U 22119AW  23272.53403246  .00003318  00000-0  22641-3 0  9991,2 53930  53.2181 348.9067 0001568  83.7671 276.3499 15.08845170 57282,6917.865,95.437,540.814,538.645,0.0
53930.0,STARLINK-5010,PAYLOAD,2023-09-29 23:56:42,15.08849759,0.0001506,53.2172,346.8242,85.6434,274.4731,0.00042795,6.531e-05,0.0,0 STARLINK-5010,1 53930U 22119AW  23272.99771127  .00006531  00000-0  42795-3 0  9999,2 53930  53.2172 346.8242 0001506  85.6434 274.4731 15.08849759 57357,6917.851,95.437,540.757,538.674,0.0
53930.0,STARLINK-5010,PAYLOAD,2023-09-30 14:15:09,15.08863932,0.0001481,53.2161,344.146,90.5794,269.5368,0.00060146,9.303e-05,0.0,0 STARLINK-5010,1 53930U 22119AW  23273.59386381  .00009303  00000-0  60146-3 0  9990,2 53930  53.2161 344.1460 0001481  90.5794 269.5368 15.08863932 57028,6917.807,95.436,540.697,538.648,0.0
53930.0,STARLINK-5010,PAYLOAD,2023-09-30 22:12:05,15.08852068,0.0001243,53.2176,342.6606,98.9379,261.1754,0.00018175,2.607e-05,0.0,0 STARLINK-5010,1 53930U 22119AW  23273.92506377  .00002607  00000-0  18175-3 0  9991,2 53930  53.2176 342.6606 0001243  98.9379 261.1754 15.08852068 57076,6917.844,95.437,540.568,538.849,0.0
53930.0,STARLINK-5010,PAYLOAD,2023-10-01 10:55:10,15.08851627,0.0001609,53.2173,340.2785,106.6765,253.4404,0.00020953,3.049e-05,0.0,0 STARLINK-5010,1 53930U 22119AW  23274.45498200  .00003049  00000-0  20953-3 0  9993,2 53930  53.2173 340.2785 0001609 106.6765 253.4404 15.08851627 57578,6917.845,95.437,540.823,538.597,0.0
53930.0,STARLINK-5010,PAYLOAD,2023-10-02 10:45:58,15.08834523,0.0001433,53.2159,335.8192,87.6929,272.4227,0.00028777,4.294e-05,0.0,0 STARLINK-5010,1 53930U 22119AW  23275.44859280  .00004294  00000-0  28777-3 0  9997,2 53930  53.2159 335.8192 0001433  87.6929 272.4227 15.08834523 57300,6917.897,95.438,540.753,538.771,0.0
53930.0,STARLINK-5010,PAYLOAD,2023-10-02 15:32:07,15.08836739,0.000132,53.2177,334.9276,78.8573,281.2568,0.00059441,9.184e-05,0.0,0 STARLINK-5010,1 53930U 22119AW  23275.64731298  .00009184  00000-0  59441-3 0  9992,2 53930  53.2177 334.9276 0001320  78.8573 281.2568 15.08836739 57751,6917.89,95.438,540.669,538.842,0.0
53930.0,STARLINK-5010,PAYLOAD,2023-10-03 10:36:45,15.08849177,0.0001626,53.2178,331.3593,82.1064,278.0113,0.00061165,9.462e-05,0.0,0 STARLINK-5010,1 53930U 22119AW  23276.44219335  .00009462  00000-0  61165-3 0  9999,2 53930  53.2178 331.3593 0001626  82.1064 278.0113 15.08849177 57870,6917.852,95.437,540.842,538.592,0.0
53930.0,STARLINK-5010,PAYLOAD,2023-10-04 04:06:00,15.08842761,0.0001621,53.2175,328.0887,79.4946,280.6229,0.00022037,3.221e-05,0.0,0 STARLINK-5010,1 53930U 22119AW  23277.17083566  .00003221  00000-0  22037-3 0  9997,2 53930  53.2175 328.0887 0001621  79.4946 280.6229 15.08842761 57564,6917.872,95.437,540.858,538.616,0.0
